O3B MPOWER F1           
1 54755U 22174A   23207.95418522 -.00000011  00000+0  00000+0 0  9993
2 54755   0.0394  10.4041 0003273 191.5673 216.8684  5.00112008 12512
